{"fetched_at":"2026-03-29T02:12:04Z","count":15717,"tles":[{"name":"STARLINK-1944","line1":"1 46796U 20074BK  26087.54285336  .00106726  00000+0  91546-3 0  9993","line2":"2 46796  53.0446 178.1038 0005564   7.8974 352.2128 15.68579750300345","category":"Starlink"}]}