{
  "norad_id": 46796,
  "name": "STARLINK-1944",
  "history": [
    {
      "epoch": "2026-03-28T13:01:42.530304",
      "apogee_km": 366.7137832922963,
      "perigee_km": 359.21228717308986,
      "latitude_deg": -16.191738655049274,
      "longitude_deg": -8.286077440017834,
      "semi_major_axis_km": 6741.100035232693,
      "eccentricity": 0.0005564,
      "inclination_deg": 53.0446,
      "raan_deg": 178.1038,
      "arg_perigee_deg": 7.8974,
      "mean_anomaly_deg": 352.2128,
      "mean_motion_rev_day": 15.6857975
    }
  ]
}